[Satellite]
VERSION=1.1
NAME=CZ-4B R/B
NICKNAME=CZ-4B R/B
TLE1=1 27432U 02024C   22342.35987478  .00000038  00000+0  43279-4 0  9999
TLE2=2 27432  99.0465   9.8068 0050978 144.8653 226.1995 14.14165103 61405
STATUS=0
